[{"OBJECT_NAME":"STARLINK-6288","OBJECT_ID":"2023-061AA","EPOCH":"2026-03-08T15:23:44.287584","MEAN_MOTION":15.02531108,"ECCENTRICITY":0.00011735,"INCLINATION":43.0027,"RA_OF_ASC_NODE":190.4528,"ARG_OF_PERICENTER":273.0926,"MEAN_ANOMALY":86.9782,"EPHEMERIS_TYPE":0,"CLASSIFICATION_TYPE":"U","NORAD_CAT_ID":56398,"ELEMENT_SET_NO":999,"REV_AT_EPOCH":15674,"BSTAR":-1.2824897e-5,"MEAN_MOTION_DOT":-3.77e-6,"MEAN_MOTION_DDOT":0},{"OBJECT_NAME":"CZ-6A DEB","OBJECT_ID":"2024-140FM","EPOCH":"2026-03-09T15:58:48.665856","MEAN_MOTION":15.24907574,"ECCENTRICITY":0.01008734,"INCLINATION":89.2247,"RA_OF_ASC_NODE":296.4931,"ARG_OF_PERICENTER":41.247,"MEAN_ANOMALY":319.6342,"EPHEMERIS_TYPE":0,"CLASSIFICATION_TYPE":"U","NORAD_CAT_ID":60786,"ELEMENT_SET_NO":999,"REV_AT_EPOCH":8558,"BSTAR":0.0022097808,"MEAN_MOTION_DOT":0.0006402,"MEAN_MOTION_DDOT":0}]
